{"type": "FeatureCollection", "features": [ {"type": "Feature", "properties": {"norad_id": 38514, "name": "FENGYUN 1C DEB", "group": "fengyun-1c-debris", "lat": -64.56137146740168, "lon": 39.64971542712898, "alt_km": 745.3473649332909, "timestamp": "2025-12-19T08:58:49.627852+00:00", "meta": {"OBJECT_NAME": "FENGYUN 1C DEB", "OBJECT_ID": "1999-025ESZ", "EPOCH": "2025-12-18T01:03:18.975168", "MEAN_MOTION": 14.15951848, "ECCENTRICITY": 0.0270189, "INCLINATION": 98.0548, "RA_OF_ASC_NODE": 21.125, "ARG_OF_PERICENTER": 358.3491, "MEAN_ANOMALY": 1.6767, "EPHEMERIS_TYPE": 0, "CLASSIFICATION_TYPE": "U", "NORAD_CAT_ID": 38514, "ELEMENT_SET_NO": 999, "REV_AT_EPOCH": 88071, "BSTAR": 0.0055912774, "MEAN_MOTION_DOT": 0.0001571, "MEAN_MOTION_DDOT": 0}, "tle": {"line1": "1 38514U 99025ESZ 25352.04396962  .00015710  00000+0  55913-2 0  9990", "line2": "2 38514  98.0548  21.1250 0270189 358.3491   1.6767 14.15951848880715"}}, "geometry": {"type": "Point", "coordinates": [39.64971542712898, -64.56137146740168]}}, {"type": "Feature", "properties": {"norad_id": 38516, "name": "FENGYUN 1C DEB", "group": "fengyun-1c-debris", "lat": -17.637628326727082, "lon": -20.161815157924824, "alt_km": 826.2938058126347, "timestamp": "2025-12-19T08:58:49.627862+00:00", "meta": {"OBJECT_NAME": "FENGYUN 1C DEB", "OBJECT_ID": "1999-025ETB", "EPOCH": "2025-12-11T05:08:28.629600", "MEAN_MOTION": 14.34046614, "ECCENTRICITY": 0.01114605, "INCLINATION": 98.4424, "RA_OF_ASC_NODE": 329.1639, "ARG_OF_PERICENTER": 129.7908, "MEAN_ANOMALY": 231.3156, "EPHEMERIS_TYPE": 0, "CLASSIFICATION_TYPE": "U", "NORAD_CAT_ID": 38516, "ELEMENT_SET_NO": 999, "REV_AT_EPOCH": 84851, "BSTAR": 0.00015782354, "MEAN_MOTION_DOT": 4.29e-06, "MEAN_MOTION_DDOT": 0}, "tle": {"line1": "1 38516U 99025ETB 25345.21422025  .00000429  00000+0  15782-3 0  9995", "line2": "2 38516  98.4424 329.1639 0111460 129.7908 231.3156 14.34046614848518"}}, "geometry": {"type": "Point", "coordinates": [-20.161815157924824, -17.637628326727082]}}, {"type": "Feature", "properties": {"norad_id": 38717, "name": "FENGYUN 1C DEB", "group": "fengyun-1c-debris", "lat": -44.718296218803104, "lon": 179.6240962321857, "alt_km": 845.6554884911147, "timestamp": "2025-12-19T08:58:49.627882+00:00", "meta": {"OBJECT_NAME": "FENGYUN 1C DEB", "OBJECT_ID": "1999-025ETJ", "EPOCH": "2025-12-16T19:52:31.389312", "MEAN_MOTION": 14.19963624, "ECCENTRICITY": 0.00567162, "INCLINATION": 99.1594, "RA_OF_ASC_NODE": 6.1834, "ARG_OF_PERICENTER": 342.3119, "MEAN_ANOMALY": 195.7889, "EPHEMERIS_TYPE": 0, "CLASSIFICATION_TYPE": "U", "NORAD_CAT_ID": 38717, "ELEMENT_SET_NO": 999, "REV_AT_EPOCH": 58484, "BSTAR": 0.001367751, "MEAN_MOTION_DOT": 2.907e-05, "MEAN_MOTION_DDOT": 0}, "tle": {"line1": "1 38717U 99025ETJ 25350.82814108  .00002907  00000+0  13678-2 0  9992", "line2": "2 38717  99.1594   6.1834 0056716 342.3119 195.7889 14.19963624584846"}}, "geometry": {"type": "Point", "coordinates": [179.6240962321857, -44.718296218803104]}}, {"type": "Feature", "properties": {"norad_id": 38722, "name": "FENGYUN 1C DEB", "group": "fengyun-1c-debris", "lat": 77.79906199832313, "lon": -37.81385341508596, "alt_km": 594.7732966137546, "timestamp": "2025-12-19T08:58:49.627894+00:00", "meta": {"OBJECT_NAME": "FENGYUN 1C DEB", "OBJECT_ID": "1999-025ETP", "EPOCH": "2025-12-17T02:12:43.977024", "MEAN_MOTION": 14.58521186, "ECCENTRICITY": 0.0146561, "INCLINATION": 99.3535, "RA_OF_ASC_NODE": 89.9539, "ARG_OF_PERICENTER": 81.7471, "MEAN_ANOMALY": 280.0316, "EPHEMERIS_TYPE": 0, "CLASSIFICATION_TYPE": "U", "NORAD_CAT_ID": 38722, "ELEMENT_SET_NO": 999, "REV_AT_EPOCH": 70527, "BSTAR": 0.0018586815, "MEAN_MOTION_DOT": 9.973e-05, "MEAN_MOTION_DDOT": 0}, "tle": {"line1": "1 38722U 99025ETP 25351.09217566  .00009973  00000+0  18587-2 0  9997", "line2": "2 38722  99.3535  89.9539 0146561  81.7471 280.0316 14.58521186705274"}}, "geometry": {"type": "Point", "coordinates": [-37.81385341508596, 77.79906199832313]}}, {"type": "Feature", "properties": {"norad_id": 38725, "name": "FENGYUN 1C DEB", "group": "fengyun-1c-debris", "lat": -47.251081556332, "lon": 128.5961382272856, "alt_km": 748.9090576012786, "timestamp": "2025-12-19T08:58:49.627904+00:00", "meta": {"OBJECT_NAME": "FENGYUN 1C DEB", "OBJECT_ID": "1999-025ETS", "EPOCH": "2025-12-17T07:16:31.480896", "MEAN_MOTION": 14.42909835, "ECCENTRICITY": 0.00350733, "INCLINATION": 98.8709, "RA_OF_ASC_NODE": 116.7145, "ARG_OF_PERICENTER": 243.5094, "MEAN_ANOMALY": 116.2496, "EPHEMERIS_TYPE": 0, "CLASSIFICATION_TYPE": "U", "NORAD_CAT_ID": 38725, "ELEMENT_SET_NO": 999, "REV_AT_EPOCH": 73418, "BSTAR": 0.0021269674, "MEAN_MOTION_DOT": 7.121e-05, "MEAN_MOTION_DDOT": 0}, "tle": {"line1": "1 38725U 99025ETS 25351.30314214  .00007121  00000+0  21270-2 0  9998", "line2": "2 38725  98.8709 116.7145 0035073 243.5094 116.2496 14.42909835734185"}}, "geometry": {"type": "Point", "coordinates": [128.5961382272856, -47.251081556332]}}, {"type": "Feature", "properties": {"norad_id": 38726, "name": "FENGYUN 1C DEB", "group": "fengyun-1c-debris", "lat": -67.77393658396173, "lon": 41.82097535779584, "alt_km": 577.5561222406523, "timestamp": "2025-12-19T08:58:49.627914+00:00", "meta": {"OBJECT_NAME": "FENGYUN 1C DEB", "OBJECT_ID": "1999-025ETT", "EPOCH": "2025-12-18T07:44:42.644256", "MEAN_MOTION": 15.04018095, "ECCENTRICITY": 0.00236822, "INCLINATION": 99.1359, "RA_OF_ASC_NODE": 17.3874, "ARG_OF_PERICENTER": 108.0917, "MEAN_ANOMALY": 252.2886, "EPHEMERIS_TYPE": 0, "CLASSIFICATION_TYPE": "U", "NORAD_CAT_ID": 38726, "ELEMENT_SET_NO": 999, "REV_AT_EPOCH": 69939, "BSTAR": 0.0056393313, "MEAN_MOTION_DOT": 0.00079186, "MEAN_MOTION_DDOT": 0}, "tle": {"line1": "1 38726U 99025ETT 25352.32271579  .00079186  00000+0  56393-2 0  9992", "line2": "2 38726  99.1359  17.3874 0023682 108.0917 252.2886 15.04018095699393"}}, "geometry": {"type": "Point", "coordinates": [41.82097535779584, -67.77393658396173]}}, {"type": "Feature", "properties": {"norad_id": 38728, "name": "FENGYUN 1C DEB", "group": "fengyun-1c-debris", "lat": 39.436301914264675, "lon": 169.319187886322, "alt_km": 669.2930304476786, "timestamp": "2025-12-19T08:58:49.627925+00:00", "meta": {"OBJECT_NAME": "FENGYUN 1C DEB", "OBJECT_ID": "1999-025ETV", "EPOCH": "2025-12-18T04:52:33.180384", "MEAN_MOTION": 14.70670861, "ECCENTRICITY": 0.00750743, "INCLINATION": 99.2585, "RA_OF_ASC_NODE": 340.2802, "ARG_OF_PERICENTER": 38.2663, "MEAN_ANOMALY": 24.4324, "EPHEMERIS_TYPE": 0, "CLASSIFICATION_TYPE": "U", "NORAD_CAT_ID": 38728, "ELEMENT_SET_NO": 999, "REV_AT_EPOCH": 65691, "BSTAR": 0.0011739041, "MEAN_MOTION_DOT": 7.408e-05, "MEAN_MOTION_DDOT": 0}, "tle": {"line1": "1 38728U 99025ETV 25352.20316181  .00007408  00000+0  11739-2 0  9993", "line2": "2 38728  99.2585 340.2802 0075074  38.2663  24.4324 14.70670861656914"}}, "geometry": {"type": "Point", "coordinates": [169.319187886322, 39.436301914264675]}}, {"type": "Feature", "properties": {"norad_id": 38789, "name": "FENGYUN 1C DEB", "group": "fengyun-1c-debris", "lat": -29.23180705324729, "lon": 54.74062772329328, "alt_km": 879.4977686158263, "timestamp": "2025-12-19T08:58:49.627935+00:00", "meta": {"OBJECT_NAME": "FENGYUN 1C DEB", "OBJECT_ID": "1999-025EUD", "EPOCH": "2025-12-16T11:04:27.892416", "MEAN_MOTION": 14.45831603, "ECCENTRICITY": 0.02075268, "INCLINATION": 98.8566, "RA_OF_ASC_NODE": 236.7044, "ARG_OF_PERICENTER": 14.1855, "MEAN_ANOMALY": 164.1034, "EPHEMERIS_TYPE": 0, "CLASSIFICATION_TYPE": "U", "NORAD_CAT_ID": 38789, "ELEMENT_SET_NO": 999, "REV_AT_EPOCH": 61899, "BSTAR": 0.00050950207, "MEAN_MOTION_DOT": 2.303e-05, "MEAN_MOTION_DDOT": 0}, "tle": {"line1": "1 38789U 99025EUD 25350.46143394  .00002303  00000+0  50950-3 0  9998", "line2": "2 38789  98.8566 236.7044 0207526  14.1855 164.1034 14.45831603618998"}}, "geometry": {"type": "Point", "coordinates": [54.74062772329328, -29.23180705324729]}}, {"type": "Feature", "properties": {"norad_id": 38795, "name": "FENGYUN 1C DEB", "group": "fengyun-1c-debris", "lat": 81.21975121158117, "lon": -82.1803149704193, "alt_km": 1455.1021262614659, "timestamp": "2025-12-19T08:58:49.627945+00:00", "meta": {"OBJECT_NAME": "FENGYUN 1C DEB", "OBJECT_ID": "1999-025EUK", "EPOCH": "2025-12-16T08:15:33.594912", "MEAN_MOTION": 13.29919399, "ECCENTRICITY": 0.05021789, "INCLINATION": 98.7013, "RA_OF_ASC_NODE": 12.7481, "ARG_OF_PERICENTER": 246.8267, "MEAN_ANOMALY": 107.9214, "EPHEMERIS_TYPE": 0, "CLASSIFICATION_TYPE": "U", "NORAD_CAT_ID": 38795, "ELEMENT_SET_NO": 999, "REV_AT_EPOCH": 78560, "BSTAR": 0.0023166517, "MEAN_MOTION_DOT": 2.135e-05, "MEAN_MOTION_DDOT": 0}, "tle": {"line1": "1 38795U 99025EUK 25350.34413883  .00002135  00000+0  23167-2 0  9997", "line2": "2 38795  98.7013  12.7481 0502178 246.8267 107.9214 13.29919399785608"}}, "geometry": {"type": "Point", "coordinates": [-82.1803149704193, 81.21975121158117]}}, {"type": "Feature", "properties": {"norad_id": 38797, "name": "FENGYUN 1C DEB", "group": "fengyun-1c-debris", "lat": -50.72039724250108, "lon": -102.16382137435775, "alt_km": 1076.4876035035022, "timestamp": "2025-12-19T08:58:49.627955+00:00", "meta": {"OBJECT_NAME": "FENGYUN 1C DEB", "OBJECT_ID": "1999-025EUM", "EPOCH": "2025-12-17T23:44:01.184640", "MEAN_MOTION": 13.61612988, "ECCENTRICITY": 0.02448803, "INCLINATION": 99.4841, "RA_OF_ASC_NODE": 244.6966, "ARG_OF_PERICENTER": 207.8615, "MEAN_ANOMALY": 150.9232, "EPHEMERIS_TYPE": 0, "CLASSIFICATION_TYPE": "U", "NORAD_CAT_ID": 38797, "ELEMENT_SET_NO": 999, "REV_AT_EPOCH": 59354, "BSTAR": 0.00020864031, "MEAN_MOTION_DOT": 1.51e-06, "MEAN_MOTION_DDOT": 0}, "tle": {"line1": "1 38797U 99025EUM 25351.98890260  .00000151  00000+0  20864-3 0  9996", "line2": "2 38797  99.4841 244.6966 0244880 207.8615 150.9232 13.61612988593546"}}, "geometry": {"type": "Point", "coordinates": [-102.16382137435775, -50.72039724250108]}}]}